[
  {
    "COMMENT": "GENERATED VIA SPACETRACK.ORG API",
    "ORIGINATOR": "18 SPCS",
    "NORAD_CAT_ID": "43437",
    "OBJECT_NAME": "SENTINEL 3B",
    "OBJECT_TYPE": "PAYLOAD",
    "CLASSIFICATION_TYPE": "U",
    "INTLDES": "18039A",
    "EPOCH": "2023-08-06 09:54:17",
    "EPOCH_MICROSECONDS": "241984",
    "MEAN_MOTION": "14.26737003",
    "ECCENTRICITY": "0.000151",
    "INCLINATION": "98.6251",
    "RA_OF_ASC_NODE": "284.8118",
    "ARG_OF_PERICENTER": "94.9633",
    "MEAN_ANOMALY": "265.1719",
    "EPHEMERIS_TYPE": "0",
    "ELEMENT_SET_NO": "999",
    "REV_AT_EPOCH": "27500",
    "BSTAR": "0.000094323",
    "MEAN_MOTION_DOT": "0.00000185",
    "MEAN_MOTION_DDOT": "0",
    "FILE": "3973004",
    "TLE_LINE0": "0 SENTINEL 3B",
    "TLE_LINE1": "1 43437U 18039A   23218.41269956  .00000185  00000-0  94323-4 0  9999",
    "TLE_LINE2": "2 43437  98.6251 284.8118 0001510  94.9633 265.1719 14.26737003275005",
    "OBJECT_ID": "2018-039A",
    "OBJECT_NUMBER": "43437",
    "SEMIMAJOR_AXIS": "7180.795",
    "PERIOD": "100.930",
    "APOGEE": "803.745",
    "PERIGEE": "801.576",
    "DECAYED": "0"
  },
  {
    "COMMENT": "GENERATED VIA SPACETRACK.ORG API",
    "ORIGINATOR": "18 SPCS",
    "NORAD_CAT_ID": "43437",
    "OBJECT_NAME": "SENTINEL 3B",
    "OBJECT_TYPE": "PAYLOAD",
    "CLASSIFICATION_TYPE": "U",
    "INTLDES": "18039A",
    "EPOCH": "2023-08-07 11:09:05",
    "EPOCH_MICROSECONDS": "536224",
    "MEAN_MOTION": "14.26737403",
    "ECCENTRICITY": "0.0001506",
    "INCLINATION": "98.6249",
    "RA_OF_ASC_NODE": "285.8485",
    "ARG_OF_PERICENTER": "94.5664",
    "MEAN_ANOMALY": "265.5688",
    "EPHEMERIS_TYPE": "0",
    "ELEMENT_SET_NO": "999",
    "REV_AT_EPOCH": "27515",
    "BSTAR": "0.000087767",
    "MEAN_MOTION_DOT": "0.00000169",
    "MEAN_MOTION_DDOT": "0",
    "FILE": "3973910",
    "TLE_LINE0": "0 SENTINEL 3B",
    "TLE_LINE1": "1 43437U 18039A   23219.46464741  .00000169  00000-0  87767-4 0  9990",
    "TLE_LINE2": "2 43437  98.6249 285.8485 0001506  94.5664 265.5688 14.26737403275154",
    "OBJECT_ID": "2018-039A",
    "OBJECT_NUMBER": "43437",
    "SEMIMAJOR_AXIS": "7180.794",
    "PERIOD": "100.930",
    "APOGEE": "803.741",
    "PERIGEE": "801.578",
    "DECAYED": "0"
  },
  {
    "COMMENT": "GENERATED VIA SPACETRACK.ORG API",
    "ORIGINATOR": "18 SPCS",
    "NORAD_CAT_ID": "43437",
    "OBJECT_NAME": "SENTINEL 3B",
    "OBJECT_TYPE": "PAYLOAD",
    "CLASSIFICATION_TYPE": "U",
    "INTLDES": "18039A",
    "EPOCH": "2023-08-08 15:45:52",
    "EPOCH_MICROSECONDS": "208928",
    "MEAN_MOTION": "14.26738158",
    "ECCENTRICITY": "0.0001503",
    "INCLINATION": "98.6248",
    "RA_OF_ASC_NODE": "287.0236",
    "ARG_OF_PERICENTER": "94.2277",
    "MEAN_ANOMALY": "265.9075",
    "EPHEMERIS_TYPE": "0",
    "ELEMENT_SET_NO": "999",
    "REV_AT_EPOCH": "27532",
    "BSTAR": "0.000095461",
    "MEAN_MOTION_DOT": "0.00000187",
    "MEAN_MOTION_DDOT": "0",
    "FILE": "3975132",
    "TLE_LINE0": "0 SENTINEL 3B",
    "TLE_LINE1": "1 43437U 18039A   23220.65685427  .00000187  00000-0  95461-4 0  9999",
    "TLE_LINE2": "2 43437  98.6248 287.0236 0001503  94.2277 265.9075 14.26738158275326",
    "OBJECT_ID": "2018-039A",
    "OBJECT_NUMBER": "43437",
    "SEMIMAJOR_AXIS": "7180.792",
    "PERIOD": "100.930",
    "APOGEE": "803.736",
    "PERIGEE": "801.577",
    "DECAYED": "0"
  },
  {
    "COMMENT": "GENERATED VIA SPACETRACK.ORG API",
    "ORIGINATOR": "18 SPCS",
    "NORAD_CAT_ID": "43437",
    "OBJECT_NAME": "SENTINEL 3B",
    "OBJECT_TYPE": "PAYLOAD",
    "CLASSIFICATION_TYPE": "U",
    "INTLDES": "18039A",
    "EPOCH": "2023-08-10 03:06:35",
    "EPOCH_MICROSECONDS": "723232",
    "MEAN_MOTION": "14.26738607",
    "ECCENTRICITY": "0.0001494",
    "INCLINATION": "98.6246",
    "RA_OF_ASC_NODE": "288.4751",
    "ARG_OF_PERICENTER": "93.4415",
    "MEAN_ANOMALY": "266.6937",
    "EPHEMERIS_TYPE": "0",
    "ELEMENT_SET_NO": "999",
    "REV_AT_EPOCH": "27553",
    "BSTAR": "0.000082083",
    "MEAN_MOTION_DOT": "0.00000155",
    "MEAN_MOTION_DDOT": "0",
    "FILE": "3976327",
    "TLE_LINE0": "0 SENTINEL 3B",
    "TLE_LINE1": "1 43437U 18039A   23222.12958013  .00000155  00000-0  82083-4 0  9998",
    "TLE_LINE2": "2 43437  98.6246 288.4751 0001494  93.4415 266.6937 14.26738607275532",
    "OBJECT_ID": "2018-039A",
    "OBJECT_NUMBER": "43437",
    "SEMIMAJOR_AXIS": "7180.790",
    "PERIOD": "100.929",
    "APOGEE": "803.728",
    "PERIGEE": "801.582",
    "DECAYED": "0"
  },
  {
    "COMMENT": "GENERATED VIA SPACETRACK.ORG API",
    "ORIGINATOR": "18 SPCS",
    "NORAD_CAT_ID": "43437",
    "OBJECT_NAME": "SENTINEL 3B",
    "OBJECT_TYPE": "PAYLOAD",
    "CLASSIFICATION_TYPE": "U",
    "INTLDES": "18039A",
    "EPOCH": "2023-08-11 04:21:24",
    "EPOCH_MICROSECONDS": "166944",
    "MEAN_MOTION": "14.26732608",
    "ECCENTRICITY": "0.0001585",
    "INCLINATION": "98.6244",
    "RA_OF_ASC_NODE": "289.5119",
    "ARG_OF_PERICENTER": "90.4033",
    "MEAN_ANOMALY": "269.7329",
    "EPHEMERIS_TYPE": "0",
    "ELEMENT_SET_NO": "999",
    "REV_AT_EPOCH": "27568",
    "BSTAR": "0.000072877",
    "MEAN_MOTION_DOT": "0.00000133",
    "MEAN_MOTION_DDOT": "0",
    "FILE": "3977549",
    "TLE_LINE0": "0 SENTINEL 3B",
    "TLE_LINE1": "1 43437U 18039A   23223.18152971  .00000133  00000-0  72877-4 0  9990",
    "TLE_LINE2": "2 43437  98.6244 289.5119 0001585  90.4033 269.7329 14.26732608275684",
    "OBJECT_ID": "2018-039A",
    "OBJECT_NUMBER": "43437",
    "SEMIMAJOR_AXIS": "7180.810",
    "PERIOD": "100.930",
    "APOGEE": "803.813",
    "PERIGEE": "801.537",
    "DECAYED": "0"
  },
  {
    "COMMENT": "GENERATED VIA SPACETRACK.ORG API",
    "ORIGINATOR": "18 SPCS",
    "NORAD_CAT_ID": "43437",
    "OBJECT_NAME": "SENTINEL 3B",
    "OBJECT_TYPE": "PAYLOAD",
    "CLASSIFICATION_TYPE": "U",
    "INTLDES": "18039A",
    "EPOCH": "2023-08-12 19:04:06",
    "EPOCH_MICROSECONDS": "669696",
    "MEAN_MOTION": "14.26732747",
    "ECCENTRICITY": "0.000151",
    "INCLINATION": "98.6245",
    "RA_OF_ASC_NODE": "291.1017",
    "ARG_OF_PERICENTER": "91.6282",
    "MEAN_ANOMALY": "268.5072",
    "EPHEMERIS_TYPE": "0",
    "ELEMENT_SET_NO": "999",
    "REV_AT_EPOCH": "27591",
    "BSTAR": "0.000078689",
    "MEAN_MOTION_DOT": "0.00000147",
    "MEAN_MOTION_DDOT": "0",
    "FILE": "3978729",
    "TLE_LINE0": "0 SENTINEL 3B",
    "TLE_LINE1": "1 43437U 18039A   23224.79452164  .00000147  00000-0  78689-4 0  9997",
    "TLE_LINE2": "2 43437  98.6245 291.1017 0001510  91.6282 268.5072 14.26732747275910",
    "OBJECT_ID": "2018-039A",
    "OBJECT_NUMBER": "43437",
    "SEMIMAJOR_AXIS": "7180.810",
    "PERIOD": "100.930",
    "APOGEE": "803.759",
    "PERIGEE": "801.590",
    "DECAYED": "0"
  },
  {
    "COMMENT": "GENERATED VIA SPACETRACK.ORG API",
    "ORIGINATOR": "18 SPCS",
    "NORAD_CAT_ID": "43437",
    "OBJECT_NAME": "SENTINEL 3B",
    "OBJECT_TYPE": "PAYLOAD",
    "CLASSIFICATION_TYPE": "U",
    "INTLDES": "18039A",
    "EPOCH": "2023-08-14 01:21:52",
    "EPOCH_MICROSECONDS": "950240",
    "MEAN_MOTION": "14.26733148",
    "ECCENTRICITY": "0.0001459",
    "INCLINATION": "98.6244",
    "RA_OF_ASC_NODE": "292.3457",
    "ARG_OF_PERICENTER": "90.9933",
    "MEAN_ANOMALY": "269.1415",
    "EPHEMERIS_TYPE": "0",
    "ELEMENT_SET_NO": "999",
    "REV_AT_EPOCH": "27609",
    "BSTAR": "0.000075671",
    "MEAN_MOTION_DOT": "0.00000139",
    "MEAN_MOTION_DDOT": "0",
    "FILE": "3979731",
    "TLE_LINE0": "0 SENTINEL 3B",
    "TLE_LINE1": "1 43437U 18039A   23226.05686285  .00000139  00000-0  75671-4 0  9990",
    "TLE_LINE2": "2 43437  98.6244 292.3457 0001459  90.9933 269.1415 14.26733148276091",
    "OBJECT_ID": "2018-039A",
    "OBJECT_NUMBER": "43437",
    "SEMIMAJOR_AXIS": "7180.808",
    "PERIOD": "100.930",
    "APOGEE": "803.721",
    "PERIGEE": "801.626",
    "DECAYED": "0"
  },
  {
    "COMMENT": "GENERATED VIA SPACETRACK.ORG API",
    "ORIGINATOR": "18 SPCS",
    "NORAD_CAT_ID": "43437",
    "OBJECT_NAME": "SENTINEL 3B",
    "OBJECT_TYPE": "PAYLOAD",
    "CLASSIFICATION_TYPE": "U",
    "INTLDES": "18039A",
    "EPOCH": "2023-08-15 02:36:41",
    "EPOCH_MICROSECONDS": "491584",
    "MEAN_MOTION": "14.26733615",
    "ECCENTRICITY": "0.0001455",
    "INCLINATION": "98.6244",
    "RA_OF_ASC_NODE": "293.3824",
    "ARG_OF_PERICENTER": "90.4288",
    "MEAN_ANOMALY": "269.706",
    "EPHEMERIS_TYPE": "0",
    "ELEMENT_SET_NO": "999",
    "REV_AT_EPOCH": "27624",
    "BSTAR": "0.000085018",
    "MEAN_MOTION_DOT": "0.00000162",
    "MEAN_MOTION_DDOT": "0",
    "FILE": "3980517",
    "TLE_LINE0": "0 SENTINEL 3B",
    "TLE_LINE1": "1 43437U 18039A   23227.10881356  .00000162  00000-0  85018-4 0  9995",
    "TLE_LINE2": "2 43437  98.6244 293.3824 0001455  90.4288 269.7060 14.26733615276242",
    "OBJECT_ID": "2018-039A",
    "OBJECT_NUMBER": "43437",
    "SEMIMAJOR_AXIS": "7180.807",
    "PERIOD": "100.930",
    "APOGEE": "803.717",
    "PERIGEE": "801.627",
    "DECAYED": "0"
  }
]